[{"OBJECT_NAME":"SDX02","OBJECT_ID":"2024-253B","EPOCH":"2026-03-09T21:41:23.516160","MEAN_MOTION":15.57750254,"ECCENTRICITY":0.00053925,"INCLINATION":54.9936,"RA_OF_ASC_NODE":91.8205,"ARG_OF_PERICENTER":12.1656,"MEAN_ANOMALY":347.951,"EPHEMERIS_TYPE":0,"CLASSIFICATION_TYPE":"U","NORAD_CAT_ID":62460,"ELEMENT_SET_NO":999,"REV_AT_EPOCH":6699,"BSTAR":0.00064573353,"MEAN_MOTION_DOT":0.00048557,"MEAN_MOTION_DDOT":0},{"OBJECT_NAME":"STARLINK-36406","OBJECT_ID":"2026-036V","EPOCH":"2026-03-09T22:00:01.999584","MEAN_MOTION":15.7314404,"ECCENTRICITY":0.00015438,"INCLINATION":42.9997,"RA_OF_ASC_NODE":248.3001,"ARG_OF_PERICENTER":278.6155,"MEAN_ANOMALY":216.9426,"EPHEMERIS_TYPE":0,"CLASSIFICATION_TYPE":"U","NORAD_CAT_ID":67923,"ELEMENT_SET_NO":999,"REV_AT_EPOCH":368,"BSTAR":-0.01506771,"MEAN_MOTION_DOT":-0.01858786,"MEAN_MOTION_DDOT":0}]
